[{"OBJECT_NAME":"SL-8 R/B","OBJECT_ID":"1990-078B","EPOCH":"2026-03-02T22:08:34.695456","MEAN_MOTION":14.88792936,"ECCENTRICITY":0.03638965,"INCLINATION":82.899,"RA_OF_ASC_NODE":257.3971,"ARG_OF_PERICENTER":36.7307,"MEAN_ANOMALY":325.826,"EPHEMERIS_TYPE":0,"CLASSIFICATION_TYPE":"U","NORAD_CAT_ID":20775,"ELEMENT_SET_NO":999,"REV_AT_EPOCH":80829,"BSTAR":0.00048175971,"MEAN_MOTION_DOT":0.00016399,"MEAN_MOTION_DDOT":0},{"OBJECT_NAME":"SL-8 R/B","OBJECT_ID":"1991-006B","EPOCH":"2026-03-02T21:09:20.321280","MEAN_MOTION":13.7749326,"ECCENTRICITY":0.00234267,"INCLINATION":82.9463,"RA_OF_ASC_NODE":175.1067,"ARG_OF_PERICENTER":56.6915,"MEAN_ANOMALY":65.6886,"EPHEMERIS_TYPE":0,"CLASSIFICATION_TYPE":"U","NORAD_CAT_ID":21088,"ELEMENT_SET_NO":999,"REV_AT_EPOCH":76313,"BSTAR":3.0929757e-5,"MEAN_MOTION_DOT":4.6e-7,"MEAN_MOTION_DDOT":0},{"OBJECT_NAME":"OKEAN-3","OBJECT_ID":"1991-039A","EPOCH":"2026-03-02T19:54:58.035168","MEAN_MOTION":15.04744996,"ECCENTRICITY":0.00143588,"INCLINATION":82.5201,"RA_OF_ASC_NODE":343.4875,"ARG_OF_PERICENTER":2.8339,"MEAN_ANOMALY":357.2966,"EPHEMERIS_TYPE":0,"CLASSIFICATION_TYPE":"U","NORAD_CAT_ID":21397,"ELEMENT_SET_NO":999,"REV_AT_EPOCH":86400,"BSTAR":0.00025972635,"MEAN_MOTION_DOT":3.694e-5,"MEAN_MOTION_DDOT":0},{"OBJECT_NAME":"COSMOS 2151","OBJECT_ID":"1991-042A","EPOCH":"2026-03-02T22:42:31.569408","MEAN_MOTION":15.00072719,"ECCENTRICITY":0.00141439,"INCLINATION":82.4931,"RA_OF_ASC_NODE":90.1829,"ARG_OF_PERICENTER":83.7123,"MEAN_ANOMALY":276.5712,"EPHEMERIS_TYPE":0,"CLASSIFICATION_TYPE":"U","NORAD_CAT_ID":21422,"ELEMENT_SET_NO":999,"REV_AT_EPOCH":86218,"BSTAR":0.00016866687,"MEAN_MOTION_DOT":2.131e-5,"MEAN_MOTION_DDOT":0},{"OBJECT_NAME":"SL-14 R/B","OBJECT_ID":"1991-042B","EPOCH":"2026-03-02T22:30:10.180512","MEAN_MOTION":14.81821081,"ECCENTRICITY":0.00155972,"INCLINATION":82.491,"RA_OF_ASC_NODE":226.5143,"ARG_OF_PERICENTER":262.7811,"MEAN_ANOMALY":97.163,"EPHEMERIS_TYPE":0,"CLASSIFICATION_TYPE":"U","NORAD_CAT_ID":21423,"ELEMENT_SET_NO":999,"REV_AT_EPOCH":85207,"BSTAR":7.111413e-5,"MEAN_MOTION_DOT":5.86e-6,"MEAN_MOTION_DDOT":0},{"OBJECT_NAME":"ERS-1","OBJECT_ID":"1991-050A","EPOCH":"2026-03-02T22:54:50.360256","MEAN_MOTION":14.39443021,"ECCENTRICITY":0.00312692,"INCLINATION":98.7885,"RA_OF_ASC_NODE":80.02,"ARG_OF_PERICENTER":220.7291,"MEAN_ANOMALY":139.1558,"EPHEMERIS_TYPE":0,"CLASSIFICATION_TYPE":"U","NORAD_CAT_ID":21574,"ELEMENT_SET_NO":999,"REV_AT_EPOCH":81476,"BSTAR":0.00013442284,"MEAN_MOTION_DOT":3.74e-6,"MEAN_MOTION_DDOT":0},{"OBJECT_NAME":"ARIANE 40 R/B","OBJECT_ID":"1991-050F","EPOCH":"2026-03-02T17:51:50.927616","MEAN_MOTION":14.42887563,"ECCENTRICITY":0.00043739,"INCLINATION":98.2027,"RA_OF_ASC_NODE":114.241,"ARG_OF_PERICENTER":96.3153,"MEAN_ANOMALY":263.8536,"EPHEMERIS_TYPE":0,"CLASSIFICATION_TYPE":"U","NORAD_CAT_ID":21610,"ELEMENT_SET_NO":999,"REV_AT_EPOCH":81799,"BSTAR":0.00012044108,"MEAN_MOTION_DOT":3.61e-6,"MEAN_MOTION_DDOT":0},{"OBJECT_NAME":"INTERCOSMOS 25","OBJECT_ID":"1991-086A","EPOCH":"2026-03-02T19:20:02.929344","MEAN_MOTION":12.11977255,"ECCENTRICITY":0.14870689,"INCLINATION":82.6065,"RA_OF_ASC_NODE":314.1685,"ARG_OF_PERICENTER":131.7631,"MEAN_ANOMALY":242.0557,"EPHEMERIS_TYPE":0,"CLASSIFICATION_TYPE":"U","NORAD_CAT_ID":21819,"ELEMENT_SET_NO":999,"REV_AT_EPOCH":49585,"BSTAR":0.00030564121,"MEAN_MOTION_DOT":1.593e-5,"MEAN_MOTION_DDOT":0},{"OBJECT_NAME":"SL-8 R/B","OBJECT_ID":"1992-008B","EPOCH":"2026-03-02T23:15:33.607008","MEAN_MOTION":13.75969828,"ECCENTRICITY":0.00352098,"INCLINATION":82.9228,"RA_OF_ASC_NODE":272.7789,"ARG_OF_PERICENTER":151.6564,"MEAN_ANOMALY":319.046,"EPHEMERIS_TYPE":0,"CLASSIFICATION_TYPE":"U","NORAD_CAT_ID":21876,"ELEMENT_SET_NO":999,"REV_AT_EPOCH":70849,"BSTAR":-8.554912e-6,"MEAN_MOTION_DOT":7.0e-8,"MEAN_MOTION_DDOT":0},{"OBJECT_NAME":"SL-8 R/B","OBJECT_ID":"1992-020B","EPOCH":"2026-03-02T19:03:31.656960","MEAN_MOTION":13.75548515,"ECCENTRICITY":0.0027928,"INCLINATION":82.934,"RA_OF_ASC_NODE":158.8798,"ARG_OF_PERICENTER":318.8708,"MEAN_ANOMALY":162.2505,"EPHEMERIS_TYPE":0,"CLASSIFICATION_TYPE":"U","NORAD_CAT_ID":21938,"ELEMENT_SET_NO":999,"REV_AT_EPOCH":70018,"BSTAR":6.9022326e-5,"MEAN_MOTION_DOT":8.2e-7,"MEAN_MOTION_DDOT":0},{"OBJECT_NAME":"USA 81","OBJECT_ID":"1992-023A","EPOCH":"2026-03-02T17:49:45.273504","MEAN_MOTION":14.32365171,"ECCENTRICITY":0.00026366,"INCLINATION":85.0098,"RA_OF_ASC_NODE":135.4483,"ARG_OF_PERICENTER":83.1586,"MEAN_ANOMALY":276.9907,"EPHEMERIS_TYPE":0,"CLASSIFICATION_TYPE":"U","NORAD_CAT_ID":21949,"ELEMENT_SET_NO":999,"REV_AT_EPOCH":9379,"BSTAR":7.0113425e-5,"MEAN_MOTION_DOT":2.09e-6,"MEAN_MOTION_DDOT":0},{"OBJECT_NAME":"COSMOS 2219","OBJECT_ID":"1992-076A","EPOCH":"2026-03-02T22:36:59.695776","MEAN_MOTION":14.14088695,"ECCENTRICITY":0.00193522,"INCLINATION":71.0617,"RA_OF_ASC_NODE":32.1718,"ARG_OF_PERICENTER":216.0527,"MEAN_ANOMALY":143.9292,"EPHEMERIS_TYPE":0,"CLASSIFICATION_TYPE":"U","NORAD_CAT_ID":22219,"ELEMENT_SET_NO":999,"REV_AT_EPOCH":71742,"BSTAR":0.00018527099,"MEAN_MOTION_DOT":3.06e-6,"MEAN_MOTION_DDOT":0},{"OBJECT_NAME":"SL-16 R/B","OBJECT_ID":"1992-076B","EPOCH":"2026-03-02T20:36:02.771424","MEAN_MOTION":14.16859712,"ECCENTRICITY":0.00106473,"INCLINATION":70.9997,"RA_OF_ASC_NODE":202.7622,"ARG_OF_PERICENTER":108.9627,"MEAN_ANOMALY":2.9705,"EPHEMERIS_TYPE":0,"CLASSIFICATION_TYPE":"U","NORAD_CAT_ID":22220,"ELEMENT_SET_NO":999,"REV_AT_EPOCH":72086,"BSTAR":7.1181614e-5,"MEAN_MOTION_DOT":9.5e-7,"MEAN_MOTION_DDOT":0},{"OBJECT_NAME":"COSMOS 2221","OBJECT_ID":"1992-080A","EPOCH":"2026-03-02T16:22:04.840608","MEAN_MOTION":14.96169084,"ECCENTRICITY":0.00134244,"INCLINATION":82.502,"RA_OF_ASC_NODE":285.7945,"ARG_OF_PERICENTER":211.7493,"MEAN_ANOMALY":148.2921,"EPHEMERIS_TYPE":0,"CLASSIFICATION_TYPE":"U","NORAD_CAT_ID":22236,"ELEMENT_SET_NO":999,"REV_AT_EPOCH":77974,"BSTAR":0.00018070501,"MEAN_MOTION_DOT":2.064e-5,"MEAN_MOTION_DDOT":0},{"OBJECT_NAME":"SL-16 R/B","OBJECT_ID":"1992-093B","EPOCH":"2026-03-02T22:55:26.605920","MEAN_MOTION":14.15449606,"ECCENTRICITY":0.00062669,"INCLINATION":71.0238,"RA_OF_ASC_NODE":18.4021,"ARG_OF_PERICENTER":300.9286,"MEAN_ANOMALY":59.122,"EPHEMERIS_TYPE":0,"CLASSIFICATION_TYPE":"U","NORAD_CAT_ID":22285,"ELEMENT_SET_NO":999,"REV_AT_EPOCH":71220,"BSTAR":-4.1978689e-5,"MEAN_MOTION_DOT":-1.3e-6,"MEAN_MOTION_DDOT":0},{"OBJECT_NAME":"COSMOS 2228","OBJECT_ID":"1992-094A","EPOCH":"2026-03-02T23:17:16.639008","MEAN_MOTION":14.97148819,"ECCENTRICITY":0.00172269,"INCLINATION":82.5145,"RA_OF_ASC_NODE":243.7453,"ARG_OF_PERICENTER":328.648,"MEAN_ANOMALY":31.3714,"EPHEMERIS_TYPE":0,"CLASSIFICATION_TYPE":"U","NORAD_CAT_ID":22286,"ELEMENT_SET_NO":999,"REV_AT_EPOCH":77505,"BSTAR":0.0002396374,"MEAN_MOTION_DOT":2.8e-5,"MEAN_MOTION_DDOT":0},{"OBJECT_NAME":"SL-16 R/B","OBJECT_ID":"1993-016B","EPOCH":"2026-03-02T20:29:08.813472","MEAN_MOTION":14.15304662,"ECCENTRICITY":0.00113097,"INCLINATION":71.0056,"RA_OF_ASC_NODE":229.5391,"ARG_OF_PERICENTER":323.686,"MEAN_ANOMALY":36.3494,"EPHEMERIS_TYPE":0,"CLASSIFICATION_TYPE":"U","NORAD_CAT_ID":22566,"ELEMENT_SET_NO":999,"REV_AT_EPOCH":70120,"BSTAR":0.00019676788,"MEAN_MOTION_DOT":3.36e-6,"MEAN_MOTION_DDOT":0}]
